{
"type": "FeatureCollection",
"name": "kisumu_boundary",
"crs": { "type": "name", "properties": { "name": "urn:ogc:def:crs:OGC:1.3:CRS84" } },
"features": [
{ "type": "Feature", "properties": { "bbox_west": 34.4169364, "bbox_south": -0.416827, "bbox_east": 35.343328, "bbox_north": 0.0226311, "place_id": 38895937, "osm_type": "relation", "osm_id": 3486289, "lat": -0.197126, "lon": 34.7778573, "class": "boundary", "type": "administrative", "place_rank": 8, "importance": 0.45039779319602985, "addresstype": "state", "name": "Kisumu County", "display_name": "Kisumu County, Kenya" }, "geometry": { "type": "Polygon", "coordinates": [ [ [ 34.4169364, -0.0874763 ], [ 34.4171195, -0.0913826 ], [ 34.4185704, -0.096568 ], [ 34.4221244, -0.1092659 ], [ 34.423227, -0.1123113 ], [ 34.4251151, -0.1175667 ], [ 34.4257255, -0.1207405 ], [ 34.4274955, -0.1245247 ], [ 34.4287162, -0.1280647 ], [ 34.4288993, -0.1296516 ], [ 34.4289535, -0.1316026 ], [ 34.4291434, -0.1384407 ], [ 34.4323173, -0.1465584 ], [ 34.4337211, -0.151136 ], [ 34.435271, -0.1555948 ], [ 34.4356002, -0.1565421 ], [ 34.4376884, -0.1625496 ], [ 34.4380588, -0.1638809 ], [ 34.4388174, -0.1662938 ], [ 34.4388401, -0.1663503 ], [ 34.4388603, -0.1664711 ], [ 34.438887, -0.1665792 ], [ 34.4418787, -0.1750535 ], [ 34.4429374, -0.1780525 ], [ 34.4625297, -0.2363411 ], [ 34.4677177, -0.2529426 ], [ 34.4810061, -0.293542 ], [ 34.483946, -0.301943 ], [ 34.530889, -0.2733333 ], [ 34.5557304, -0.2715023 ], [ 34.7042899, -0.2594784 ], [ 34.7347465, -0.2780941 ], [ 34.7439017, -0.2840145 ], [ 34.7557426, -0.2926205 ], [ 34.7567191, -0.2960995 ], [ 34.7582455, -0.2985162 ], [ 34.7589164, -0.2995785 ], [ 34.758306, -0.3036068 ], [ 34.7590995, -0.3086117 ], [ 34.7615409, -0.3123958 ], [ 34.7656639, -0.313083 ], [ 34.7663016, -0.3131893 ], [ 34.77033, -0.3131893 ], [ 34.7768841, -0.317855 ], [ 34.7775321, -0.3183163 ], [ 34.780889, -0.3203914 ], [ 34.7849174, -0.3235042 ], [ 34.7879081, -0.3269222 ], [ 34.7885184, -0.3319881 ], [ 34.7862996, -0.3348463 ], [ 34.7849174, -0.3366268 ], [ 34.7861381, -0.3398006 ], [ 34.7893119, -0.3435238 ], [ 34.792913, -0.3440121 ], [ 34.7923026, -0.3471248 ], [ 34.7941337, -0.3504207 ], [ 34.7971244, -0.3518246 ], [ 34.7988944, -0.3540829 ], [ 34.8015189, -0.3554256 ], [ 34.8045097, -0.3548153 ], [ 34.8099418, -0.354388 ], [ 34.8131156, -0.3587215 ], [ 34.8162894, -0.3626278 ], [ 34.8193412, -0.3670833 ], [ 34.8194248, -0.3681288 ], [ 34.8199235, -0.369088 ], [ 34.820745, -0.3706844 ], [ 34.8233085, -0.3742245 ], [ 34.8229423, -0.3788021 ], [ 34.8251395, -0.3822201 ], [ 34.8248954, -0.3863094 ], [ 34.8284965, -0.3888119 ], [ 34.8320975, -0.388995 ], [ 34.8361259, -0.3905819 ], [ 34.8366978, -0.3908554 ], [ 34.8395883, -0.3923406 ], [ 34.8398135, -0.3932614 ], [ 34.8404144, -0.3933063 ], [ 34.8445026, -0.3926484 ], [ 34.848516, -0.3930233 ], [ 34.855535, -0.3929012 ], [ 34.8571561, -0.3927365 ], [ 34.8589731, -0.3930615 ], [ 34.8599679, -0.3930365 ], [ 34.8602405, -0.3933959 ], [ 34.8602508, -0.3943254 ], [ 34.8596151, -0.394533 ], [ 34.8589074, -0.3953442 ], [ 34.8626932, -0.3980192 ], [ 34.8645412, -0.3980379 ], [ 34.8662099, -0.3972364 ], [ 34.8672115, -0.3951131 ], [ 34.869513, -0.3950737 ], [ 34.8726859, -0.396014 ], [ 34.8754935, -0.3971126 ], [ 34.8790946, -0.397723 ], [ 34.8825329, -0.3971431 ], [ 34.8869071, -0.397723 ], [ 34.8889213, -0.4010799 ], [ 34.8917289, -0.4026058 ], [ 34.891912, -0.3980892 ], [ 34.8941093, -0.3958309 ], [ 34.8975272, -0.3949154 ], [ 34.900518, -0.3930233 ], [ 34.9094901, -0.3894222 ], [ 34.9129081, -0.3875301 ], [ 34.9158988, -0.3869198 ], [ 34.9168697, -0.3885064 ], [ 34.9169364, -0.3905208 ], [ 34.9155326, -0.3930843 ], [ 34.9161453, -0.3955776 ], [ 34.9144399, -0.3971217 ], [ 34.9143339, -0.398258 ], [ 34.9153671, -0.4010618 ], [ 34.9149223, -0.4032162 ], [ 34.9188895, -0.4043148 ], [ 34.92339, -0.4041927 ], [ 34.923893, -0.403439 ], [ 34.9270374, -0.4023056 ], [ 34.926702, -0.4035213 ], [ 34.9273158, -0.4040917 ], [ 34.929046, -0.404243 ], [ 34.9298001, -0.4036062 ], [ 34.9307046, -0.4036373 ], [ 34.9299191, -0.406617 ], [ 34.9309135, -0.4121273 ], [ 34.9317333, -0.4128939 ], [ 34.9356464, -0.4122288 ], [ 34.9362289, -0.4117911 ], [ 34.9381156, -0.4126156 ], [ 34.940496, -0.4143246 ], [ 34.9451347, -0.4146297 ], [ 34.9474932, -0.4152636 ], [ 34.9484501, -0.4153238 ], [ 34.9493218, -0.4149062 ], [ 34.9503967, -0.4163621 ], [ 34.9517264, -0.416827 ], [ 34.9547172, -0.4162166 ], [ 34.9623466, -0.4160946 ], [ 34.96491, -0.4140804 ], [ 34.9682483, -0.4136222 ], [ 34.9711356, -0.4132259 ], [ 34.973516, -0.4117 ], [ 34.9753371, -0.4099989 ], [ 34.976934, -0.4112118 ], [ 34.9807181, -0.4140804 ], [ 34.9852958, -0.4145077 ], [ 34.9888969, -0.4107235 ], [ 34.9932914, -0.4085262 ], [ 34.9987235, -0.4062069 ], [ 35.0029349, -0.4060848 ], [ 35.0051322, -0.4026058 ], [ 35.0071464, -0.3999813 ], [ 35.0101371, -0.3938167 ], [ 35.0107787, -0.3916391 ], [ 35.0106864, -0.3898445 ], [ 35.0103202, -0.3865486 ], [ 35.0071464, -0.3729378 ], [ 35.0062919, -0.3623787 ], [ 35.0058289, -0.3599212 ], [ 35.0057874, -0.3597009 ], [ 35.0054984, -0.3581673 ], [ 35.0061088, -0.3545662 ], [ 35.0061088, -0.3497444 ], [ 35.0067191, -0.3465706 ], [ 35.0062919, -0.3434578 ], [ 35.0067507, -0.3391909 ], [ 35.0069022, -0.3377815 ], [ 35.008306, -0.3341804 ], [ 35.010207, -0.3318043 ], [ 35.0103972, -0.3315665 ], [ 35.0105033, -0.3314339 ], [ 35.0133109, -0.3305794 ], [ 35.0161185, -0.3293587 ], [ 35.0225272, -0.3257576 ], [ 35.025518, -0.3232551 ], [ 35.0295463, -0.3187385 ], [ 35.0318751, -0.3165047 ], [ 35.032537, -0.3158699 ], [ 35.0423026, -0.3077522 ], [ 35.0469413, -0.3035408 ], [ 35.0495048, -0.3002449 ], [ 35.0506882, -0.2969677 ], [ 35.0510917, -0.2958504 ], [ 35.0519462, -0.2914558 ], [ 35.0523124, -0.2872444 ], [ 35.0521549, -0.2834655 ], [ 35.0521293, -0.2828499 ], [ 35.0529227, -0.2785774 ], [ 35.0546928, -0.2728401 ], [ 35.0559135, -0.26753 ], [ 35.0557304, -0.2635628 ], [ 35.0569538, -0.255903 ], [ 35.0571342, -0.2547737 ], [ 35.05689, -0.2515388 ], [ 35.0571342, -0.2472664 ], [ 35.0579276, -0.2388435 ], [ 35.0589042, -0.2346321 ], [ 35.0604911, -0.2298714 ], [ 35.0618949, -0.2244392 ], [ 35.0627186, -0.2218606 ], [ 35.0632987, -0.2200447 ], [ 35.0647025, -0.2172371 ], [ 35.0698905, -0.2122322 ], [ 35.0739188, -0.2093635 ], [ 35.0873466, -0.2059456 ], [ 35.095098, -0.2048469 ], [ 35.1007133, -0.2033821 ], [ 35.1038871, -0.2018562 ], [ 35.1061454, -0.1981331 ], [ 35.107122, -0.1936775 ], [ 35.1105399, -0.1902595 ], [ 35.1181083, -0.1763435 ], [ 35.121099, -0.1716438 ], [ 35.1229301, -0.1683479 ], [ 35.126287, -0.1605354 ], [ 35.133306, -0.1566292 ], [ 35.1375175, -0.1600471 ], [ 35.1381549, -0.1607731 ], [ 35.1397147, -0.1625496 ], [ 35.1455131, -0.1626716 ], [ 35.1492973, -0.163343 ], [ 35.154119, -0.1648689 ], [ 35.157537, -0.1663338 ], [ 35.1603446, -0.1656624 ], [ 35.1637015, -0.1637703 ], [ 35.1677299, -0.1645637 ], [ 35.1707206, -0.1639534 ], [ 35.1757255, -0.1637703 ], [ 35.1787162, -0.165052 ], [ 35.1837211, -0.1647468 ], [ 35.1865287, -0.1622444 ], [ 35.1898856, -0.1623665 ], [ 35.1995292, -0.1642586 ], [ 35.2039237, -0.1666389 ], [ 35.2067313, -0.1700569 ], [ 35.2128959, -0.1734749 ], [ 35.2155204, -0.175367 ], [ 35.2167411, -0.1794563 ], [ 35.2189384, -0.1822639 ], [ 35.2189384, -0.1861702 ], [ 35.2203422, -0.1922737 ], [ 35.2230888, -0.1952644 ], [ 35.2277274, -0.1969734 ], [ 35.2316947, -0.1959358 ], [ 35.2352958, -0.1969734 ], [ 35.2373099, -0.1991707 ], [ 35.2415214, -0.201551 ], [ 35.2453056, -0.2040535 ], [ 35.2490897, -0.2090584 ], [ 35.2497001, -0.2123543 ], [ 35.2527638, -0.2158085 ], [ 35.2537627, -0.2169347 ], [ 35.2559257, -0.2193733 ], [ 35.2579398, -0.2218757 ], [ 35.2596653, -0.2227577 ], [ 35.2606864, -0.2232796 ], [ 35.2629447, -0.2251716 ], [ 35.2619071, -0.2297493 ], [ 35.2629447, -0.2324348 ], [ 35.265142, -0.2342659 ], [ 35.2721, -0.237867 ], [ 35.2763114, -0.2382332 ], [ 35.2803397, -0.2381721 ], [ 35.2835136, -0.2380501 ], [ 35.2872977, -0.2374397 ], [ 35.2919364, -0.2373787 ], [ 35.2955375, -0.2384773 ], [ 35.2996879, -0.2392708 ], [ 35.3029227, -0.2411629 ], [ 35.3059135, -0.2404304 ], [ 35.3089042, -0.2432381 ], [ 35.312139, -0.2472664 ], [ 35.3135436, -0.2484881 ], [ 35.313877, -0.2496117 ], [ 35.3147561, -0.2501181 ], [ 35.3157514, -0.2498342 ], [ 35.3163574, -0.2503958 ], [ 35.3170325, -0.2502849 ], [ 35.3181205, -0.2496306 ], [ 35.319699, -0.2490333 ], [ 35.320645, -0.2488428 ], [ 35.3213596, -0.2488388 ], [ 35.3243012, -0.2470999 ], [ 35.3253467, -0.2470129 ], [ 35.3266483, -0.2465913 ], [ 35.3275252, -0.2460171 ], [ 35.3292642, -0.2455686 ], [ 35.332455, -0.2437697 ], [ 35.3333333, -0.2439089 ], [ 35.3343066, -0.2437608 ], [ 35.335564, -0.2435293 ], [ 35.3361259, -0.2427498 ], [ 35.3374813, -0.2432816 ], [ 35.3384348, -0.2423365 ], [ 35.3396455, -0.2415159 ], [ 35.3410302, -0.2415928 ], [ 35.3419229, -0.2411562 ], [ 35.3426597, -0.2409536 ], [ 35.3425346, -0.239759 ], [ 35.343328, -0.236158 ], [ 35.341497, -0.2284675 ], [ 35.3400931, -0.2208381 ], [ 35.3377128, -0.211866 ], [ 35.3356986, -0.2071663 ], [ 35.3345389, -0.2024666 ], [ 35.332891, -0.1972786 ], [ 35.3317313, -0.1920296 ], [ 35.3314872, -0.1886726 ], [ 35.3313041, -0.177137 ], [ 35.3261161, -0.1764656 ], [ 35.325253, -0.1764656 ], [ 35.2966972, -0.1764656 ], [ 35.2872977, -0.1600471 ], [ 35.2851005, -0.1559578 ], [ 35.2830863, -0.1529671 ], [ 35.2817435, -0.1503425 ], [ 35.279119, -0.1470466 ], [ 35.2763114, -0.1481453 ], [ 35.2742973, -0.151075 ], [ 35.2705131, -0.1540657 ], [ 35.2697196, -0.1497322 ], [ 35.2675591, -0.1456537 ], [ 35.2637382, -0.1384407 ], [ 35.2612968, -0.1366707 ], [ 35.2605033, -0.1324592 ], [ 35.2543388, -0.1207405 ], [ 35.246099, -0.1207405 ], [ 35.2393241, -0.1204353 ], [ 35.2347465, -0.1210457 ], [ 35.2335258, -0.1175667 ], [ 35.2291312, -0.1122566 ], [ 35.2270931, -0.1075553 ], [ 35.2271171, -0.0944343 ], [ 35.2265067, -0.0899788 ], [ 35.2273002, -0.0850349 ], [ 35.2273002, -0.0719734 ], [ 35.2271171, -0.066053 ], [ 35.2258964, -0.0613533 ], [ 35.2239432, -0.0512825 ], [ 35.2215018, -0.0405403 ], [ 35.221746, -0.0373665 ], [ 35.2179008, -0.0359627 ], [ 35.2141166, -0.0328499 ], [ 35.2073417, -0.0293709 ], [ 35.2011161, -0.0274788 ], [ 35.1969047, -0.0269295 ], [ 35.1939139, -0.026136 ], [ 35.1915336, -0.0282722 ], [ 35.1879325, -0.0288826 ], [ 35.183538, -0.0287605 ], [ 35.1803031, -0.0298591 ], [ 35.179241, -0.0294302 ], [ 35.1771293, -0.0285774 ], [ 35.1729179, -0.0297371 ], [ 35.169744, -0.0310798 ], [ 35.1670963, -0.0320516 ], [ 35.1630912, -0.0311409 ], [ 35.1608939, -0.0340706 ], [ 35.1583305, -0.0362678 ], [ 35.1553397, -0.0367561 ], [ 35.1509452, -0.036573 ], [ 35.1481376, -0.0342537 ], [ 35.1437431, -0.0321785 ], [ 35.1359306, -0.0267464 ], [ 35.1334891, -0.0246712 ], [ 35.1307426, -0.0231453 ], [ 35.1237235, -0.0181404 ], [ 35.1207328, -0.0163704 ], [ 35.1080985, -0.0075813 ], [ 35.103704, -0.005262 ], [ 35.1023002, -0.0099617 ], [ 35.1027274, -0.0149666 ], [ 35.1033378, -0.0189339 ], [ 35.1035209, -0.0235725 ], [ 35.1001029, -0.0281502 ], [ 35.0972953, -0.0304695 ], [ 35.0957084, -0.0334602 ], [ 35.0953422, -0.036573 ], [ 35.0944877, -0.0395637 ], [ 35.0921073, -0.0445686 ], [ 35.0889335, -0.0478645 ], [ 35.0864921, -0.0495735 ], [ 35.0809379, -0.0524422 ], [ 35.0773368, -0.0540291 ], [ 35.0743461, -0.0564705 ], [ 35.0719047, -0.0588508 ], [ 35.0659232, -0.0666633 ], [ 35.0631156, -0.0606819 ], [ 35.0604911, -0.0579353 ], [ 35.0593314, -0.0544563 ], [ 35.0553031, -0.0541511 ], [ 35.0553031, -0.0541628 ], [ 35.0476614, -0.0541628 ], [ 35.0476614, -0.0541511 ], [ 35.0211234, -0.0541511 ], [ 35.0153251, -0.0540291 ], [ 35.0105033, -0.0541511 ], [ 35.0079753, -0.054152 ], [ 35.0079398, -0.0514656 ], [ 35.0081229, -0.0395637 ], [ 35.0084891, -0.0334602 ], [ 35.0067191, -0.0282722 ], [ 35.0009208, -0.0252815 ], [ 34.9953056, -0.0228401 ], [ 34.9903007, -0.0201546 ], [ 34.989141, -0.0240608 ], [ 34.9788871, -0.0245491 ], [ 34.9721122, -0.0298591 ], [ 34.9647269, -0.0326668 ], [ 34.9606986, -0.0294319 ], [ 34.9583182, -0.0270515 ], [ 34.9533134, -0.0275398 ], [ 34.9551444, -0.0307747 ], [ 34.9512992, -0.0309578 ], [ 34.941851, -0.0339572 ], [ 34.9359183, -0.0358406 ], [ 34.9238944, -0.036634 ], [ 34.9201102, -0.0333381 ], [ 34.9205375, -0.0284553 ], [ 34.9171195, -0.0270515 ], [ 34.9108939, -0.0283333 ], [ 34.9069266, -0.0281502 ], [ 34.8941093, -0.0256477 ], [ 34.8889213, -0.0256477 ], [ 34.8811088, -0.0267464 ], [ 34.8703056, -0.0269295 ], [ 34.8646903, -0.0273567 ], [ 34.8525443, -0.0275398 ], [ 34.8345389, -0.0281502 ], [ 34.8283134, -0.0281502 ], [ 34.815496, -0.0241829 ], [ 34.8082938, -0.0211311 ], [ 34.8082938, -0.018595 ], [ 34.8082938, -0.0165535 ], [ 34.8107352, -0.0138679 ], [ 34.8093314, -0.0112434 ], [ 34.8107352, -0.0078255 ], [ 34.8143363, -0.0015388 ], [ 34.8162894, 0.0018181 ], [ 34.8166623, 0.0023435 ], [ 34.8256889, 0.0150627 ], [ 34.8281303, 0.0182366 ], [ 34.8305106, 0.0220207 ], [ 34.8265433, 0.0226311 ], [ 34.8229423, 0.0220207 ], [ 34.8176932, 0.01726 ], [ 34.8129325, 0.0132317 ], [ 34.8109183, 0.0106682 ], [ 34.8081107, 0.0094475 ], [ 34.8049369, 0.008654 ], [ 34.8021293, 0.0062737 ], [ 34.796514, 0.0010246 ], [ 34.7940155, -0.0016482 ], [ 34.7938895, -0.001783 ], [ 34.7900643, -0.0051582 ], [ 34.7887015, -0.0063606 ], [ 34.7867723, -0.0085579 ], [ 34.7865043, -0.0088631 ], [ 34.784307, -0.0120369 ], [ 34.7829032, -0.0151497 ], [ 34.7799125, -0.0181404 ], [ 34.7761283, -0.0167366 ], [ 34.7725272, -0.0168587 ], [ 34.7691093, -0.0179573 ], [ 34.7655082, -0.017469 ], [ 34.7627006, -0.0218635 ], [ 34.7595267, -0.0252815 ], [ 34.7567191, -0.0289436 ], [ 34.7521415, -0.0323792 ], [ 34.7518686, -0.0320531 ], [ 34.7513893, -0.0314945 ], [ 34.7512338, -0.0313362 ], [ 34.7510557, -0.0311108 ], [ 34.7503443, -0.0288551 ], [ 34.7494394, -0.0277868 ], [ 34.7475168, -0.0235828 ], [ 34.7395072, -0.0241829 ], [ 34.735813, -0.0180601 ], [ 34.7329154, -0.0132576 ], [ 34.7299247, -0.0090462 ], [ 34.7261405, -0.0071541 ], [ 34.7179008, -0.0092293 ], [ 34.7153373, -0.0118538 ], [ 34.7149205, -0.012811 ], [ 34.7136893, -0.015638 ], [ 34.7097221, -0.0201546 ], [ 34.7081407, -0.0204631 ], [ 34.7047172, -0.0211311 ], [ 34.6962943, -0.0206428 ], [ 34.6933036, -0.0181404 ], [ 34.6920241, -0.0161376 ], [ 34.6890922, -0.0115486 ], [ 34.6861014, -0.012281 ], [ 34.6817542, -0.0146575 ], [ 34.6815238, -0.0147835 ], [ 34.6723075, -0.0159431 ], [ 34.6528983, -0.0073372 ], [ 34.6499857, -0.0069787 ], [ 34.648931, -0.0068489 ], [ 34.6413016, -0.0033699 ], [ 34.6356864, 0.0004753 ], [ 34.631536, 0.001635 ], [ 34.6285453, 0.0022453 ], [ 34.6256745, 0.0017686 ], [ 34.6247001, 0.001635 ], [ 34.6209159, 0.0004753 ], [ 34.6179252, -0.000135 ], [ 34.6135306, -0.0003792 ], [ 34.6134076, 0.0002725 ], [ 34.6129203, 0.0028557 ], [ 34.6091361, 0.0028557 ], [ 34.607122, 0.0082268 ], [ 34.6041543, 0.0095989 ], [ 34.603873, 0.0097978 ], [ 34.6036759, 0.0099371 ], [ 34.5993095, 0.0080437 ], [ 34.598564, 0.0074386 ], [ 34.595098, 0.0046257 ], [ 34.5922904, 0.0030388 ], [ 34.5919025, 0.0025862 ], [ 34.5897269, 0.0000481 ], [ 34.5922904, -0.0074592 ], [ 34.58991, -0.0096565 ], [ 34.5895438, -0.0135628 ], [ 34.5875297, -0.0194832 ], [ 34.5867362, -0.022657 ], [ 34.5837455, -0.0272346 ], [ 34.5837455, -0.033155 ], [ 34.5773368, -0.0380379 ], [ 34.5763007, -0.0383891 ], [ 34.5737357, -0.0392586 ], [ 34.5675101, -0.0405403 ], [ 34.5662561, -0.0399699 ], [ 34.5626884, -0.0379768 ], [ 34.562139, -0.0342537 ], [ 34.562139, -0.0309578 ], [ 34.5641948, -0.0258279 ], [ 34.563529, -0.0221474 ], [ 34.5599797, -0.0212032 ], [ 34.5537162, -0.0218635 ], [ 34.5491386, -0.0238777 ], [ 34.5441337, -0.0210701 ], [ 34.5341002, -0.0166242 ], [ 34.5337056, -0.0169932 ], [ 34.5327393, -0.0178966 ], [ 34.5314994, -0.0190559 ], [ 34.5257011, -0.0222298 ], [ 34.5228934, -0.0231453 ], [ 34.5184989, -0.0241829 ], [ 34.5176886, -0.0245525 ], [ 34.5115409, -0.0273567 ], [ 34.5069022, -0.0288826 ], [ 34.5003104, -0.0301643 ], [ 34.4918876, -0.0304695 ], [ 34.4849296, -0.0336433 ], [ 34.4758964, -0.0398689 ], [ 34.4724247, -0.0417727 ], [ 34.4721122, -0.0419441 ], [ 34.4675346, -0.0433479 ], [ 34.4667044, -0.0434293 ], [ 34.461309, -0.0439583 ], [ 34.4585014, -0.0478645 ], [ 34.4555106, -0.0483528 ], [ 34.4528861, -0.0511604 ], [ 34.4479093, -0.0549859 ], [ 34.4447074, -0.057447 ], [ 34.4415336, -0.0594612 ], [ 34.437422, -0.0613415 ], [ 34.4315238, -0.0640388 ], [ 34.4295097, -0.0670296 ], [ 34.4260417, -0.0696933 ], [ 34.4252982, -0.0702644 ], [ 34.4187064, -0.0795418 ], [ 34.4174477, -0.0851841 ], [ 34.4169364, -0.0874763 ] ] ] } }
]
}
