{"type": "FeatureCollection", "features": [{"type": "Feature", "properties": {"name": "Kisumu True Boundary"}, "geometry": {"type": "Polygon", "coordinates": [[[34.404864, -0.068189], [34.43829, -0.17181], [34.461689, -0.158997], [34.47673, -0.174039], [34.498458, -0.170696], [34.503472, -0.192423], [34.5018, -0.207465], [34.52687, -0.207465], [34.515171, -0.185738], [34.536898, -0.158997], [34.555283, -0.158997], [34.555283, -0.143955], [34.561968, -0.13727], [34.570983, -0.146176], [34.57729, -0.143022], [34.587802, -0.148278], [34.598314, -0.138818], [34.605672, -0.151432], [34.624593, -0.152483], [34.625644, -0.14092], [34.642463, -0.12305], [34.658231, -0.113589], [34.672947, -0.112538], [34.680305, -0.103078], [34.690817, -0.095719], [34.708544, -0.09572], [34.724312, -0.106231], [34.733772, -0.09572], [34.746386, -0.088361], [34.753745, -0.09572], [34.748489, -0.106231], [34.742182, -0.118845], [34.743233, -0.127255], [34.735875, -0.139869], [34.74113, -0.15038], [34.743233, -0.161943], [34.750591, -0.155636], [34.764256, -0.164046], [34.768461, -0.173506], [34.774768, -0.182967], [34.783177, -0.195581], [34.787382, -0.200837], [34.796843, -0.19453], [34.798945, -0.213451], [34.81261, -0.226065], [34.813662, -0.235525], [34.816815, -0.247088], [34.826059, -0.258651], [34.84498, -0.262855], [34.848133, -0.268111], [34.848133, -0.275469], [34.852338, -0.279674], [34.850236, -0.287032], [34.856543, -0.296493], [34.850236, -0.307004], [34.82711, -0.326976], [34.814496, -0.326976], [34.799779, -0.309106], [34.79137, -0.295441], [34.79137, -0.289134], [34.777705, -0.297544], [34.776653, -0.297544], [34.775602, -0.28493], [34.775602, -0.276521], [34.772449, -0.268111], [34.768244, -0.310158], [34.790319, -0.335385], [34.776653, -0.337488], [34.79137, -0.34905], [34.811342, -0.353255], [34.82711, -0.391097], [34.861799, -0.392148], [34.89018, -0.397403], [34.921824, -0.382943], [34.921824, -0.401306], [34.930171, -0.401306], [34.930171, -0.409653], [34.946865, -0.411322], [34.96189, -0.411322], [34.986931, -0.407984], [35.010303, -0.401306], [35.005295, -0.359572], [35.003625, -0.33787], [35.021989, -0.324515], [35.038683, -0.312829], [35.055377, -0.292796], [35.055377, -0.277772], [35.062055, -0.256069], [35.067063, -0.222681], [35.073741, -0.205987], [35.100451, -0.205987], [35.115476, -0.190963], [35.120484, -0.17093], [35.137179, -0.155905], [35.140517, -0.162583], [35.152203, -0.165922], [35.175575, -0.165922], [35.187261, -0.159244], [35.202286, -0.17093], [35.215641, -0.175938], [35.222319, -0.192632], [35.235674, -0.192632], [35.249029, -0.214334], [35.270732, -0.232698], [35.297442, -0.231028], [35.315806, -0.249392], [35.345855, -0.239375], [35.335839, -0.216004], [35.329161, -0.195971], [35.324153, -0.175938], [35.307459, -0.169261], [35.285756, -0.169261], [35.274071, -0.145889], [35.267393, -0.145889], [35.260715, -0.120848], [35.244021, -0.119178], [35.225658, -0.11417], [35.225658, -0.08746], [35.222319, -0.062418], [35.217206, -0.039099], [35.197173, -0.025743], [35.173802, -0.025743], [35.162116, -0.045776], [35.158777, -0.03409], [35.105356, -0.000702], [35.110364, -0.024074], [35.095339, -0.029082], [35.092123, -0.050662], [35.083776, -0.05567], [35.07042, -0.072364], [35.057065, -0.05567], [35.006983, -0.052331], [35.006983, -0.030629], [34.978854, -0.020738], [34.949719, -0.029085], [34.926347, -0.029085], [34.914661, -0.012391], [34.894628, -0.024077], [34.847884, -0.024077], [34.807819, -0.024077], [34.814496, 0.002634], [34.821174, 0.022667], [34.787786, -0.010722], [34.77443, -0.010722], [34.74772, -0.030755], [34.736034, -0.017399], [34.722678, -0.000705], [34.707654, -0.019069], [34.69096, -0.024077], [34.687621, -0.004044], [34.674265, -0.01406], [34.640877, -0.002375], [34.609158, -0.005713], [34.602481, 0.007642], [34.589125, -0.009052], [34.582448, -0.030755], [34.560999, -0.037305], [34.560999, -0.02395], [34.532619, -0.02395], [34.492553, -0.028958], [34.405744, -0.065685], [34.404864, -0.068189]]]}}]}